PHISAT 2                
1 60470U 24149C   26068.78834181  .00008925  00000+0  31421-3 0  9996
2 60470  97.3806 148.6498 0001175 168.6230 191.5037 15.29548631 86792
STARLINK-32356          
1 60921U 24154U   26068.86781728  .00000447  00000+0  27208-4 0  9990
2 60921  53.1589 282.9086 0001380  99.4780 260.6377 15.30196309 86377
